{
    "links": {
        "self": "http://www.neowsapp.com/rest/v1/neo/3297370?api_key=iIulBulltgU6a56xZRHN4H3l9WmuAYTsLGpBGhQ2"
    },
    "id": "3297370",
    "neo_reference_id": "3297370",
    "name": "(2005 UV6)",
    "designation": "2005 UV6",
    "nasa_jpl_url": "http://ssd.jpl.nasa.gov/sbdb.cgi?sstr=3297370",
    "absolute_magnitude_h": 27.3,
    "estimated_diameter": {
        "kilometers": {
            "estimated_diameter_min": 0.0092162655,
            "estimated_diameter_max": 0.0206081961
        },
        "meters": {
            "estimated_diameter_min": 9.216265485,
            "estimated_diameter_max": 20.6081961232
        },
        "miles": {
            "estimated_diameter_min": 0.0057267201,
            "estimated_diameter_max": 0.0128053354
        },
        "feet": {
            "estimated_diameter_min": 30.2370924539,
            "estimated_diameter_max": 67.6121941689
        }
    },
    "is_potentially_hazardous_asteroid": false,
    "close_approach_data": [
        {
            "close_approach_date": "2005-10-31",
            "close_approach_date_full": "2005-Oct-31 09:27",
            "epoch_date_close_approach": 1130750820000,
            "relative_velocity": {
                "kilometers_per_second": "7.6383933456",
                "kilometers_per_hour": "27498.2160442354",
                "miles_per_hour": "17086.3220748195"
            },
            "miss_distance": {
                "astronomical": "0.0128981861",
                "lunar": "5.0173943929",
                "kilometers": "1929541.167423607",
                "miles": "1198961.2848634966"
            },
            "orbiting_body": "Earth"
        }
    ],
    "orbital_data": {
        "orbit_id": "7",
        "orbit_determination_date": "2017-04-06 09:10:03",
        "first_observation_date": "2005-10-29",
        "last_observation_date": "2005-10-31",
        "data_arc_in_days": 2,
        "observations_used": 21,
        "orbit_uncertainty": "8",
        "minimum_orbit_intersection": ".00660026",
        "jupiter_tisserand_invariant": "3.508",
        "epoch_osculation": "2453673.5",
        "eccentricity": ".539636438466135",
        "semi_major_axis": "2.143320598660773",
        "inclination": "1.911528767394796",
        "ascending_node_longitude": "214.2234320702816",
        "orbital_period": "1146.117473107721",
        "perihelion_distance": ".9867067043083692",
        "perihelion_argument": "202.0731993399422",
        "aphelion_distance": "3.299934493013176",
        "perihelion_time": "2453689.459269751717",
        "mean_anomaly": "354.9871306864911",
        "mean_motion": ".3141039277796301",
        "equinox": "J2000",
        "orbit_class": {
            "orbit_class_type": "APO",
            "orbit_class_description": "Near-Earth asteroid orbits which cross the Earth’s orbit similar to that of 1862 Apollo",
            "orbit_class_range": "a (semi-major axis) > 1.0 AU; q (perihelion) < 1.017 AU"
        }
    },
    "is_sentry_object": false
}